ATS 1                   
1 02608U 66110A   08316.41085786 -.00000363  00000-0  10000-3 0  9051
2 02608   8.3045 311.7408 0004591 211.0600 148.8193  1.00372724 70323
ATS 3                   
1 03029U 67111A   08317.03625038 -.00000099  00000-0  10000-3 0  4040
2 03029   9.7705 319.2862 0013696  32.2321 327.7829  1.00272663150206
ORIZURU (DEBUT)         
1 20479U 90013B   08317.78358127 -.00000008  00000-0  63434-4 0   999
2 20479  99.0468 274.4170 0539132 295.5754  59.0562 12.83680772879268
SURFSAT                 
1 23711U 95059B   08316.80446637  .00000132  00000-0  35092-3 0   942
2 23711 100.2982 319.9735 0367858 254.6282 101.3901 13.12564365623913
MAQSAT H                
1 25023U 97066A   08317.27868843  .00000002  00000-0  58635-3 0  5645
2 25023   7.9736 334.1120 6524403 276.7426  18.0516  3.09505833124631
MAQSAT B                
1 25024U 97066B   08316.11871982 -.00000051  00000-0  34412-3 0  6111
2 25024   7.9707 331.1381 6530212 282.0000  16.1457  3.08769893124516
TEAMSAT                 
1 25025U 97066C   08317.89667058 -.00000257  00000-0 -83540-3 0  6211
2 25025   7.9532 343.3724 6534110 257.7682  26.8255  3.07913411124212
OPAL (OO-38)            
1 26063U 00004C   08317.85671425 -.00000012  00000-0  16034-4 0  3578
2 26063 100.1899  59.2477 0037126 150.3049 210.0243 14.35848486460904
FALCONSAT               
1 26064U 00004D   08315.80884737 -.00000058  00000-0  87414-7 0  3487
2 26064 100.1889  55.0368 0038158 162.4317 197.8200 14.35403503460480
PICOSAT 1 & 2 [TETHERED]
1 26080U 00004H   08317.30004169  .00000107  00000-0  52350-4 0  9483
2 26080 100.1986  79.8488 0033126 106.0995 254.3868 14.40274865460267
PICOSAT 3               
1 26091U 00004J   08316.94249872  .00000196  00000-0  75408-4 0  4635
2 26091 100.1994  89.4005 0031785  73.3009 287.1653 14.43309397460089
PICOSAT 4               
1 26092U 00004K   08317.31628216  .00000135  00000-0  60844-4 0  3114
2 26092 100.1834  74.4255 0035989 102.5311 257.9913 14.40225031459480
PICOSAT 5               
1 26093U 00004L   08317.10119483  .00000208  00000-0  76875-4 0  1988
2 26093 100.2002  95.8333 0032773  57.7785 302.6540 14.44813676460700
PICOSAT 6               
1 26094U 00004M   08317.29948304  .00000068  00000-0  40332-4 0  6798
2 26094 100.1902  72.8992 0035879 111.9706 248.5300 14.39531273459008
SNAP 1                  
1 26386U 00033C   08317.62711014  .00000059  00000-0  20501-4 0  5758
2 26386  98.4067 339.2189 0012226 145.9057 214.3070 14.65094474447455
CHAMP                   
1 26405U 00039B   08318.24536370  .00011381  00000-0  52827-4 0  7012
2 26405  87.2279  41.1649 0003239  79.0038 281.1601 15.83204938475461
PICOSAT 9               
1 26930U 01043B   08317.81484959 -.00000055  00000-0  10851-4 0    64
2 26930  67.0015 241.5910 0010766 266.4517  93.5349 14.30033142371807
PROBA 1                 
1 26958U 01049B   08318.15518130  .00000286  00000-0  34001-4 0   492
2 26958  97.6549  22.2027 0082034   5.6033 354.6100 14.89615754383666
CUTE-1 (CO-55)          
1 27844U 03031E   08317.76817534  .00000059  00000-0  47939-4 0  4391
2 27844  98.7173 323.9836 0010765  50.3399 309.8723 14.20606112278534
CANX-1                  
1 27847U 03031H   08316.53296985  .00000027  00000-0  32630-4 0  3700
2 27847  98.7102 323.7485 0010078  34.1876 325.9947 14.20939329278383
CUBESAT XI-IV (CO-57)   
1 27848U 03031J   08317.57499602  .00000022  00000-0  30479-4 0  3903
2 27848  98.7174 322.8658 0010541  53.9816 306.2344 14.20412725278472
NAXING 1                
1 28221U 04012B   08317.16939855  .00000207  00000-0  28193-4 0    95
2 28221  97.5200 358.0474 0010940 194.5611 165.5337 14.87848472248043
ST5-A                   
1 28980U 06008A   08318.12515739  .00003038  00000-0  18087-3 0  8309
2 28980 105.6906 312.2287 2361752 107.9662 279.1261 10.60004894102078
ST5-B                   
1 28981U 06008B   08318.01957619  .00005246  13227-5  19142-3 0  8727
2 28981 105.6967 326.8531 2347614  94.9741 292.0885 10.70699873102639
ST5-C                   
1 28982U 06008C   08318.01418600  .00003814  13035-5  16613-3 0  8737
2 28982 105.7138 323.2644 2355092  99.9555 287.3142 10.67175009102442
GENESIS 1               
1 29252U 06029A   08318.19615903  .00000097  00000-0  20430-4 0  6403
2 29252  64.5085 325.8412 0053030 242.8655 116.7048 15.03283195128441
FALCONSAT-3             
1 30776U 07006E   08318.23492545  .00000463  00000-0  36717-4 0  4378
2 30776  35.4340 329.4853 0001115 254.5624 105.4968 15.03101047 92583
GENESIS 2               
1 31789U 07028A   08317.63579330  .00000154  00000-0  24626-4 0  3842
2 31789  64.5050 358.4016 0053371 293.8939  65.6590 15.02936511 75588
